FENGYUN 1C DEB          
1 30420U 99025AEK 17345.67202597  .00000851  00000-0  10977-3 0  9993
2 30420  98.9715  13.8764 0165673 329.7086 154.8305 14.75303299581409
